{
  "type": "FeatureCollection",
  "features": [
    {
      "type": "Feature",
      "properties": {
        "norad_id": 33651,
        "name": "FENGYUN 1C DEB",
        "group": "fengyun-1c-debris",
        "lat": -53.48722627299104,
        "lon": 37.74827848252446,
        "alt_km": 881.9103559982605,
        "timestamp": "2025-12-06T03:35:02.158352+00:00",
        "meta_object_name": "FENGYUN 1C DEB",
        "meta_object_id": "1999-025DEL",
        "meta_epoch": "2025-12-04T09:34:25.167360",
        "meta_mean_motion": 14.2034714,
        "meta_eccentricity": 0.0118053,
        "meta_inclination": 98.6575,
        "meta_ra_of_asc_node": 24.1579,
        "meta_arg_of_pericenter": 77.9387,
        "meta_mean_anomaly": 283.4991,
        "meta_ephemeris_type": 0,
        "meta_classification_type": "U",
        "meta_norad_cat_id": 33651,
        "meta_element_set_no": 999,
        "meta_rev_at_epoch": 64153,
        "meta_bstar": 0.00028899,
        "meta_mean_motion_dot": 6.21e-06,
        "meta_mean_motion_ddot": 0,
        "tle_line1": "1 33651U 99025DEL 25338.39890240  .00000621  00000+0  28899-3 0  9996",
        "tle_line2": "2 33651  98.6575  24.1579 0118053  77.9387 283.4991 14.20347140641538"
      },
      "geometry": {
        "type": "Point",
        "coordinates": [
          37.74827848252446,
          -53.48722627299104
        ]
      }
    },
    {
      "type": "Feature",
      "properties": {
        "norad_id": 33655,
        "name": "FENGYUN 1C DEB",
        "group": "fengyun-1c-debris",
        "lat": -26.577609411943765,
        "lon": 49.02249490745859,
        "alt_km": 558.2476318835515,
        "timestamp": "2025-12-06T03:35:02.158362+00:00",
        "meta_object_name": "FENGYUN 1C DEB",
        "meta_object_id": "1999-025DEQ",
        "meta_epoch": "2025-12-05T03:38:43.803168",
        "meta_mean_motion": 14.97269099,
        "meta_eccentricity": 0.00479874,
        "meta_inclination": 98.8049,
        "meta_ra_of_asc_node": 43.4524,
        "meta_arg_of_pericenter": 24.086,
        "meta_mean_anomaly": 336.2588,
        "meta_ephemeris_type": 0,
        "meta_classification_type": "U",
        "meta_norad_cat_id": 33655,
        "meta_element_set_no": 999,
        "meta_rev_at_epoch": 96444,
        "meta_bstar": 0.0036430798,
        "meta_mean_motion_dot": 0.00043384,
        "meta_mean_motion_ddot": 0,
        "tle_line1": "1 33655U 99025DEQ 25339.15189587  .00043384  00000+0  36431-2 0  9993",
        "tle_line2": "2 33655  98.8049  43.4524 0047987  24.0860 336.2588 14.97269099964447"
      },
      "geometry": {
        "type": "Point",
        "coordinates": [
          49.02249490745859,
          -26.577609411943765
        ]
      }
    },
    {
      "type": "Feature",
      "properties": {
        "norad_id": 33656,
        "name": "FENGYUN 1C DEB",
        "group": "fengyun-1c-debris",
        "lat": 62.82747260218481,
        "lon": -43.715650134146394,
        "alt_km": 746.5116458317207,
        "timestamp": "2025-12-06T03:35:02.158373+00:00",
        "meta_object_name": "FENGYUN 1C DEB",
        "meta_object_id": "1999-025DER",
        "meta_epoch": "2025-12-01T05:08:12.514272",
        "meta_mean_motion": 14.22694091,
        "meta_eccentricity": 0.0090964,
        "meta_inclination": 98.5782,
        "meta_ra_of_asc_node": 328.5792,
        "meta_arg_of_pericenter": 64.5541,
        "meta_mean_anomaly": 296.5016,
        "meta_ephemeris_type": 0,
        "meta_classification_type": "U",
        "meta_norad_cat_id": 33656,
        "meta_element_set_no": 999,
        "meta_rev_at_epoch": 62545,
        "meta_bstar": 0.00046353,
        "meta_mean_motion_dot": 1.041e-05,
        "meta_mean_motion_ddot": 0,
        "tle_line1": "1 33656U 99025DER 25335.21403373  .00001041  00000+0  46353-3 0  9998",
        "tle_line2": "2 33656  98.5782 328.5792 0090964  64.5541 296.5016 14.22694091625452"
      },
      "geometry": {
        "type": "Point",
        "coordinates": [
          -43.715650134146394,
          62.82747260218481
        ]
      }
    },
    {
      "type": "Feature",
      "properties": {
        "norad_id": 33658,
        "name": "FENGYUN 1C DEB",
        "group": "fengyun-1c-debris",
        "lat": 57.487492427119925,
        "lon": -31.198978030877974,
        "alt_km": 967.7446865437851,
        "timestamp": "2025-12-06T03:35:02.158383+00:00",
        "meta_object_name": "FENGYUN 1C DEB",
        "meta_object_id": "1999-025DET",
        "meta_epoch": "2025-12-02T16:07:19.695936",
        "meta_mean_motion": 13.62248134,
        "meta_eccentricity": 0.02842159,
        "meta_inclination": 99.5636,
        "meta_ra_of_asc_node": 130.05,
        "meta_arg_of_pericenter": 206.7255,
        "meta_mean_anomaly": 151.8999,
        "meta_ephemeris_type": 0,
        "meta_classification_type": "U",
        "meta_norad_cat_id": 33658,
        "meta_element_set_no": 999,
        "meta_rev_at_epoch": 58002,
        "meta_bstar": 0.0047533349,
        "meta_mean_motion_dot": 4.778e-05,
        "meta_mean_motion_ddot": 0,
        "tle_line1": "1 33658U 99025DET 25336.67175574  .00004778  00000+0  47533-2 0  9990",
        "tle_line2": "2 33658  99.5636 130.0500 0284215 206.7255 151.8999 13.62248134580024"
      },
      "geometry": {
        "type": "Point",
        "coordinates": [
          -31.198978030877974,
          57.487492427119925
        ]
      }
    },
    {
      "type": "Feature",
      "properties": {
        "norad_id": 33660,
        "name": "FENGYUN 1C DEB",
        "group": "fengyun-1c-debris",
        "lat": 77.51596474930354,
        "lon": 115.2483571309517,
        "alt_km": 992.9055408823888,
        "timestamp": "2025-12-06T03:35:02.158395+00:00",
        "meta_object_name": "FENGYUN 1C DEB",
        "meta_object_id": "1999-025DEV",
        "meta_epoch": "2025-12-04T12:17:22.477344",
        "meta_mean_motion": 13.91753868,
        "meta_eccentricity": 0.0110041,
        "meta_inclination": 98.6562,
        "meta_ra_of_asc_node": 250.2448,
        "meta_arg_of_pericenter": 269.0021,
        "meta_mean_anomaly": 271.6091,
        "meta_ephemeris_type": 0,
        "meta_classification_type": "U",
        "meta_norad_cat_id": 33660,
        "meta_element_set_no": 999,
        "meta_rev_at_epoch": 90949,
        "meta_bstar": 0.001052,
        "meta_mean_motion_dot": 1.364e-05,
        "meta_mean_motion_ddot": 0,
        "tle_line1": "1 33660U 99025DEV 25338.51206571  .00001364  00000+0  10520-2 0  9994",
        "tle_line2": "2 33660  98.6562 250.2448 0110041 269.0021 271.6091 13.91753868909496"
      },
      "geometry": {
        "type": "Point",
        "coordinates": [
          115.2483571309517,
          77.51596474930354
        ]
      }
    },
    {
      "type": "Feature",
      "properties": {
        "norad_id": 33663,
        "name": "FENGYUN 1C DEB",
        "group": "fengyun-1c-debris",
        "lat": -38.52515619617228,
        "lon": -21.99208560737611,
        "alt_km": 676.4245974724299,
        "timestamp": "2025-12-06T03:35:02.158405+00:00",
        "meta_object_name": "FENGYUN 1C DEB",
        "meta_object_id": "1999-025DEY",
        "meta_epoch": "2025-12-03T05:05:31.392960",
        "meta_mean_motion": 14.61049241,
        "meta_eccentricity": 0.0083574,
        "meta_inclination": 98.8831,
        "meta_ra_of_asc_node": 327.7042,
        "meta_arg_of_pericenter": 41.7093,
        "meta_mean_anomaly": 319.0438,
        "meta_ephemeris_type": 0,
        "meta_classification_type": "U",
        "meta_norad_cat_id": 33663,
        "meta_element_set_no": 999,
        "meta_rev_at_epoch": 64063,
        "meta_bstar": 0.0084154,
        "meta_mean_motion_dot": 0.00043621,
        "meta_mean_motion_ddot": 0,
        "tle_line1": "1 33663U 99025DEY 25337.21216890  .00043621  00000+0  84154-2 0  9994",
        "tle_line2": "2 33663  98.8831 327.7042 0083574  41.7093 319.0438 14.61049241640635"
      },
      "geometry": {
        "type": "Point",
        "coordinates": [
          -21.99208560737611,
          -38.52515619617228
        ]
      }
    },
    {
      "type": "Feature",
      "properties": {
        "norad_id": 33664,
        "name": "FENGYUN 1C DEB",
        "group": "fengyun-1c-debris",
        "lat": 43.46649897406499,
        "lon": -42.484539830284454,
        "alt_km": 848.3087979933571,
        "timestamp": "2025-12-06T03:35:02.158417+00:00",
        "meta_object_name": "FENGYUN 1C DEB",
        "meta_object_id": "1999-025DEZ",
        "meta_epoch": "2025-12-02T03:10:30.773568",
        "meta_mean_motion": 14.03976749,
        "meta_eccentricity": 0.01640632,
        "meta_inclination": 98.7018,
        "meta_ra_of_asc_node": 125.3204,
        "meta_arg_of_pericenter": 69.7897,
        "meta_mean_anomaly": 292.0828,
        "meta_ephemeris_type": 0,
        "meta_classification_type": "U",
        "meta_norad_cat_id": 33664,
        "meta_element_set_no": 999,
        "meta_rev_at_epoch": 90590,
        "meta_bstar": 0.00053085125,
        "meta_mean_motion_dot": 9.05e-06,
        "meta_mean_motion_ddot": 0,
        "tle_line1": "1 33664U 99025DEZ 25336.13230062  .00000905  00000+0  53085-3 0  9990",
        "tle_line2": "2 33664  98.7018 125.3204 0164063  69.7897 292.0828 14.03976749905904"
      },
      "geometry": {
        "type": "Point",
        "coordinates": [
          -42.484539830284454,
          43.46649897406499
        ]
      }
    }
  ]
}